[{"OBJECT_NAME":"HST","OBJECT_ID":"1990-037B","EPOCH":"2026-03-09T03:50:04.164288","MEAN_MOTION":15.29473555,"ECCENTRICITY":0.00018372,"INCLINATION":28.4717,"RA_OF_ASC_NODE":43.6133,"ARG_OF_PERICENTER":120.9992,"MEAN_ANOMALY":239.0785,"EPHEMERIS_TYPE":0,"CLASSIFICATION_TYPE":"U","NORAD_CAT_ID":20580,"ELEMENT_SET_NO":999,"REV_AT_EPOCH":77323,"BSTAR":0.0003002261,"MEAN_MOTION_DOT":9.063e-5,"MEAN_MOTION_DDOT":0},{"OBJECT_NAME":"STARLINK-34508","OBJECT_ID":"2025-137H","EPOCH":"2026-03-09T22:22:24.214944","MEAN_MOTION":15.30242327,"ECCENTRICITY":0.00010718,"INCLINATION":53.1607,"RA_OF_ASC_NODE":333.9898,"ARG_OF_PERICENTER":98.7808,"MEAN_ANOMALY":261.3315,"EPHEMERIS_TYPE":0,"CLASSIFICATION_TYPE":"U","NORAD_CAT_ID":64601,"ELEMENT_SET_NO":999,"REV_AT_EPOCH":4077,"BSTAR":0.00095187672,"MEAN_MOTION_DOT":0.00027976,"MEAN_MOTION_DDOT":0}]
